NORAD_CAT_ID,OBJECT_NAME,OBJECT_TYPE,EPOCH,MEAN_MOTION,ECCENTRICITY,INCLINATION,RA_OF_ASC_NODE,ARG_OF_PERICENTER,MEAN_ANOMALY,BSTAR,MEAN_MOTION_DOT,MEAN_MOTION_DDOT,TLE_LINE0,TLE_LINE1,TLE_LINE2,SEMIMAJOR_AXIS,PERIOD,APOGEE,PERIGEE,DECAYED
53625.0,STARLINK-4603,PAYLOAD,2022-10-03 14:00:01,15.73229793,0.0001399,53.2152,107.5665,118.1403,288.0509,6.8854e-05,9.066e-05,0.0,0 STARLINK-4603,1 53625U 22104AP  22276.58334491  .00009066  00000-0  68854-4 0  9992,2 53625  53.2152 107.5665 0001399 118.1403 288.0509 15.73229793  1305,6727.81,91.531,350.616,348.7340000000001,0.0
53625.0,STARLINK-4603,PAYLOAD,2022-10-03 22:00:00,15.73246366,0.0001257,53.2151,105.919,107.4897,27.6724,-5.1135e-06,-1.339e-05,0.0,0 STARLINK-4603,1 53625U 22104AP  22276.91667824 -.00001339  00000-0 -51135-5 0  9990,2 53625  53.2151 105.9190 0001257 107.4897  27.6724 15.73246366  1301,6727.763000000001,91.53,350.474,348.782,0.0
53625.0,STARLINK-4603,PAYLOAD,2022-10-04 14:00:01,15.7320664,0.0001236,53.2155,102.6177,115.785,197.3217,-0.00046076,-0.00064806,0.0,0 STARLINK-4603,1 53625U 22104AP  22277.58334491 -.00064806  00000-0 -46076-3 0  9999,2 53625  53.2155 102.6177 0001236 115.7850 197.3217 15.73206640  1305,6727.876,91.533,350.5730000000001,348.91,0.0
53625.0,STARLINK-4603,PAYLOAD,2022-10-04 22:00:00,15.73156648,0.0001097,53.2154,100.9701,100.7237,301.3071,0.00035827,0.00049866,0.0,0 STARLINK-4603,1 53625U 22104AP  22277.91667824  .00049866  00000-0  35827-3 0  9994,2 53625  53.2154 100.9701 0001097 100.7237 301.3071 15.73156648  1303,6728.019,91.536,350.622,349.146,0.0
53625.0,STARLINK-4603,PAYLOAD,2022-10-05 14:00:01,15.73178038,0.0001216,53.2151,97.6696,109.6494,110.2206,-4.579e-05,-7.034e-05,0.0,0 STARLINK-4603,1 53625U 22104AP  22278.58335648 -.00007034  00000-0 -45790-4 0  9998,2 53625  53.2151  97.6696 0001216 109.6494 110.2206 15.73178038  1305,6727.958000000001,91.534,350.641,349.005,0.0
53625.0,STARLINK-4603,PAYLOAD,2022-10-05 22:00:00,15.73116486,0.0001210999999999,53.2149,96.022,93.4321,215.2876,0.00080963,0.00114152,0.0,0 STARLINK-4603,1 53625U 22104AP  22278.91667824  .00114152  00000-0  80963-3 0  9997,2 53625  53.2149  96.0220 0001211  93.4321 215.2876 15.73116486  1300,6728.1330000000025,91.538,350.81300000000016,349.184,0.0
53625.0,STARLINK-4603,PAYLOAD,2022-10-06 06:00:00,15.73309774,9.7e-05,53.216,94.3692,100.7335,296.8477,-0.0018932,-0.00259492,0.0,0 STARLINK-4603,1 53625U 22104AP  22279.25001157 -.00259492  00000-0 -18932-2 0  9991,2 53625  53.2160  94.3692 0000970 100.7335 296.8477 15.73309774  6182,6727.581999999999,91.527,350.1,348.795,0.0
53625.0,STARLINK-4603,PAYLOAD,2022-10-06 14:00:01,15.73197097,0.0001075,53.2168,92.7182,105.5059,21.0311,-0.00534,-0.00691274,0.0,0 STARLINK-4603,1 53625U 22104AP  22279.58334491 -.00691274  00000-0 -53400-2 0  9994,2 53625  53.2168  92.7182 0001075 105.5059  21.0311 15.73197097  1306,6727.903,91.533,350.492,349.045,0.0
53625.0,STARLINK-4603,PAYLOAD,2022-10-06 22:42:55,15.72646828,9.44e-05,53.2174,90.9234,94.6452,289.2975,-0.0085221,-0.01051169,0.0,0 STARLINK-4603,1 53625U 22104AP  22279.94646991 -.01051169  00000-0 -85221-2 0  9995,2 53625  53.2174  90.9234 0000944  94.6452 289.2975 15.72646828  1304,6729.473000000001,91.565,351.973,350.702,0.0
53625.0,STARLINK-4603,PAYLOAD,2022-10-07 00:00:00,15.72526926,9.78e-05,53.2173,90.6585,94.9411,232.2901,-0.0085897,-0.01053786,0.0,0 STARLINK-4603,1 53625U 22104AP  22280.00001157 -.01053786  00000-0 -85897-2 0  9999,2 53625  53.2173  90.6585 0000978  94.9411 232.2901 15.72526926  6302,6729.815,91.572,352.338,351.022,0.0
53625.0,STARLINK-4603,PAYLOAD,2022-10-07 14:00:01,15.712014600000002,0.0001052,53.2171,87.7762,73.699,316.3251,-0.0091502,-0.01060103,0.0,0 STARLINK-4603,1 53625U 22104AP  22280.58334491 -.01060103  00000-0 -91502-2 0  9993,2 53625  53.2171  87.7762 0001052  73.6990 316.3251 15.71201460  1303,6733.599,91.65,356.173,354.756,0.0
53625.0,STARLINK-4603,PAYLOAD,2022-10-07 22:00:00,15.70439863,0.0001109,53.2171,86.1344,84.6466,31.4327,-0.0093995,-0.0105504999999999,0.0,0 STARLINK-4603,1 53625U 22104AP  22280.91667824 -.01055050  00000-0 -93995-2 0  9992,2 53625  53.2171  86.1344 0001109  84.6466  31.4327 15.70439863  6454,6735.776,91.694,358.38800000000015,356.894,0.0
53625.0,STARLINK-4603,PAYLOAD,2022-10-08 14:00:01,15.68919942,0.0001069,53.217,82.8507,84.1573,201.2975,-0.0100069999999999,-0.01054081,0.0,0 STARLINK-4603,1 53625U 22104AP  22281.58334491 -.01054081  00000-0 -10007-1 0  9992,2 53625  53.2170  82.8507 0001069  84.1573 201.2975 15.68919942  1309,6740.126,91.783,362.711,361.27,0.0
53625.0,STARLINK-4603,PAYLOAD,2022-10-08 22:00:00,15.68173136,0.0001009,53.217,81.2143,80.1051,288.6607,-0.010503,-0.01070677,0.0,0 STARLINK-4603,1 53625U 22104AP  22281.91667824 -.01070677  00000-0 -10503-1 0  9998,2 53625  53.2170  81.2143 0001009  80.1051 288.6607 15.68173136  6605,6742.265,91.827,364.811,363.45,0.0
53625.0,STARLINK-4603,PAYLOAD,2022-10-09 14:00:01,15.66627121,0.0001315,53.2173,77.9418,65.7764,106.9,-0.010744,-0.01032274,0.0,0 STARLINK-4603,1 53625U 22104AP  22282.58334491 -.01032274  00000-0 -10744-1 0  9991,2 53625  53.2173  77.9418 0001315  65.7764 106.9000 15.66627121  1302,6746.7,91.917,369.452,367.67800000000005,0.0
53625.0,STARLINK-4603,PAYLOAD,2022-10-09 22:00:00,15.65877519,0.0001213,53.2172,76.3104,64.5152,188.7362,-0.011236,-0.01045627,0.0,0 STARLINK-4603,1 53625U 22104AP  22282.91667824 -.01045627  00000-0 -11236-1 0  9990,2 53625  53.2172  76.3104 0001213  64.5152 188.7362 15.65877519  6762,6748.853,91.961,371.537,369.9,0.0
53625.0,STARLINK-4603,PAYLOAD,2022-10-10 14:00:01,15.64361729,0.0001165,53.2174,73.0496,59.6126,352.0604,-0.012012,-0.01051063,0.0,0 STARLINK-4603,1 53625U 22104AP  22283.58334491 -.01051063  00000-0 -12012-1 0  9999,2 53625  53.2174  73.0496 0001165  59.6126 352.0604 15.64361729  1304,6753.212,92.05,375.864,374.29,0.0
53625.0,STARLINK-4603,PAYLOAD,2022-10-10 22:00:01,15.63599809,0.0001176,53.2172,71.4235,70.4281,59.1522,-0.012323,-0.01046544,0.0,0 STARLINK-4603,1 53625U 22104AP  22283.91668981 -.01046544  00000-0 -12323-1 0  9993,2 53625  53.2172  71.4235 0001176  70.4281  59.1522 15.63599809  1305,6755.406,92.095,378.065,376.476,0.0
53625.0,STARLINK-4603,PAYLOAD,2022-10-11 14:00:01,15.62081322,0.0001203,53.2176,68.17399999999999,66.7641,215.6971,-0.0130889999999999,-0.01063186,0.0,0 STARLINK-4603,1 53625U 22104AP  22284.58334491 -.01063186  00000-0 -13089-1 0  9994,2 53625  53.2176  68.1740 0001203  66.7641 215.6971 15.62081322  1304,6759.783,92.185,382.461,380.835,0.0
53625.0,STARLINK-4603,PAYLOAD,2022-10-11 22:00:00,15.61345957,0.0001205,53.2169,66.5535,52.5281,305.0251,-0.0139289999999999,-0.01096094,0.0,0 STARLINK-4603,1 53625U 22104AP  22284.91667824 -.01096094  00000-0 -13929-1 0  9997,2 53625  53.2169  66.5535 0001205  52.5281 305.0251 15.61345957  1306,6761.905,92.228,384.585,382.955,0.0
53625.0,STARLINK-4603,PAYLOAD,2022-10-12 06:00:00,15.60561579,0.0001174,53.2173,64.9314,57.1042,14.6536,-0.013875,-0.01062356,0.0,0 STARLINK-4603,1 53625U 22104AP  22285.25001157 -.01062356  00000-0 -13875-1 0  9990,2 53625  53.2173  64.9314 0001174  57.1042  14.6536 15.60561579  7134,6764.170999999999,92.274,386.83,385.242,0.0
53625.0,STARLINK-4603,PAYLOAD,2022-10-12 14:00:01,15.598012099999998,0.0001361,53.2174,63.3149,58.593,86.4428,-0.0142569999999999,-0.01060312,0.0,0 STARLINK-4603,1 53625U 22104AP  22285.58334491 -.01060312  00000-0 -14257-1 0  9991,2 53625  53.2174  63.3149 0001361  58.5930  86.4428 15.59801210  1300,6766.369000000002,92.319,389.155,387.31300000000016,0.0
53625.0,STARLINK-4603,PAYLOAD,2022-10-12 22:00:00,15.59044355,0.0001320999999999,53.217,61.6995,60.773,156.6273,-0.014735,-0.01064136,0.0,0 STARLINK-4603,1 53625U 22104AP  22285.91667824 -.01064136  00000-0 -14735-1 0  9996,2 53625  53.2170  61.6995 0001321  60.7730 156.6273 15.59044355  1302,6768.559,92.364,391.318,389.529,0.0
53625.0,STARLINK-4603,PAYLOAD,2022-10-13 14:00:01,15.57525377,0.0001361999999999,53.2173,58.4723,44.2119,315.1826,-0.015605,-0.01063817,0.0,0 STARLINK-4603,1 53625U 22104AP  22286.58334491 -.01063817  00000-0 -15605-1 0  9993,2 53625  53.2173  58.4723 0001362  44.2119 315.1826 15.57525377  1303,6772.959,92.454,395.746,393.901,0.0
53625.0,STARLINK-4603,PAYLOAD,2022-10-13 20:00:01,15.56953415,0.0001351,53.2173,57.2651,44.3502,277.4158,-0.015871,-0.0105932,0.0,0 STARLINK-4603,1 53625U 22104AP  22286.83335648 -.01059320  00000-0 -15871-1 0  9995,2 53625  53.2173  57.2651 0001351  44.3502 277.4158 15.56953415  7373,6774.6169999999975,92.488,397.397,395.567,0.0
53625.0,STARLINK-4603,PAYLOAD,2022-10-13 22:00:00,15.56765193,0.0001473,53.2171,56.8622,39.7511,29.2713,-0.016027,-0.01061974,0.0,0 STARLINK-4603,1 53625U 22104AP  22286.91667824 -.01061974  00000-0 -16027-1 0  9990,2 53625  53.2171  56.8622 0001473  39.7511  29.2713 15.56765193  1308,6775.163000000001,92.499,398.026,396.03,0.0
53625.0,STARLINK-4603,PAYLOAD,2022-10-14 14:00:01,15.55243317,0.0001535,53.2175,53.6463,50.6147,154.92700000000005,-0.016887,-0.01057628,0.0,0 STARLINK-4603,1 53625U 22104AP  22287.58334491 -.01057628  00000-0 -16887-1 0  9990,2 53625  53.2175  53.6463 0001535  50.6147 154.9270 15.55243317  1308,6779.581999999999,92.59,402.48800000000006,400.407,0.0
53625.0,STARLINK-4603,PAYLOAD,2022-10-14 16:00:00,15.55056747,0.0001389,53.2175,53.2453,49.0385,263.3097,-0.0171009999999999,-0.01063067,0.0,0 STARLINK-4603,1 53625U 22104AP  22287.66667824 -.01063067  00000-0 -17101-1 0  9992,2 53625  53.2175  53.2453 0001389  49.0385 263.3097 15.55056747  7505,6780.125,92.601,402.931,401.048,0.0
53625.0,STARLINK-4603,PAYLOAD,2022-10-14 18:00:00,15.54865518,0.0001471,53.2177,52.8442,41.9408,17.1589,-0.017183,-0.01060872,0.0,0 STARLINK-4603,1 53625U 22104AP  22287.75001157 -.01060872  00000-0 -17183-1 0  9994,2 53625  53.2177  52.8442 0001471  41.9408  17.1589 15.54865518  1305,6780.681,92.613,403.543,401.548,0.0
